{
  "type": "FeatureCollection",
  "features": [
    {
      "type": "Feature",
      "properties": {
        "norad_id": 52912,
        "name": "GAOFEN-12 03",
        "group": "resource",
        "lat": 43.55506396583603,
        "lon": 72.25051387567909,
        "alt_km": 626.7809032594168,
        "timestamp": "2025-12-23T14:49:08.987504+00:00",
        "meta_object_name": "GAOFEN-12 03",
        "meta_object_id": "2022-069A",
        "meta_epoch": "2025-12-23T06:05:32.542368",
        "meta_mean_motion": 14.79632896,
        "meta_eccentricity": 0.00018795,
        "meta_inclination": 97.8482,
        "meta_ra_of_asc_node": 244.3596,
        "meta_arg_of_pericenter": 50.3816,
        "meta_mean_anomaly": 309.7562,
        "meta_ephemeris_type": 0,
        "meta_classification_type": "U",
        "meta_norad_cat_id": 52912,
        "meta_element_set_no": 999,
        "meta_rev_at_epoch": 18859,
        "meta_bstar": 0.0001949698,
        "meta_mean_motion_dot": 1.411e-05,
        "meta_mean_motion_ddot": 0,
        "tle_line1": "1 52912U 22069A   25357.25384887  .00001411  00000+0  19497-3 0  9994",
        "tle_line2": "2 52912  97.8482 244.3596 0001879  50.3816 309.7562 14.79632896188598"
      },
      "geometry": {
        "type": "Point",
        "coordinates": [
          72.25051387567909,
          43.55506396583603
        ]
      }
    },
    {
      "type": "Feature",
      "properties": {
        "norad_id": 54754,
        "name": "SWOT",
        "group": "resource",
        "lat": -65.75194786092418,
        "lon": 121.51491397131309,
        "alt_km": 900.5433924052304,
        "timestamp": "2025-12-23T14:49:08.987517+00:00",
        "meta_object_name": "SWOT",
        "meta_object_id": "2022-173A",
        "meta_epoch": "2025-12-23T05:03:33.541632",
        "meta_mean_motion": 14.0016839,
        "meta_eccentricity": 3.877e-05,
        "meta_inclination": 77.6109,
        "meta_ra_of_asc_node": 272.8553,
        "meta_arg_of_pericenter": 83.0944,
        "meta_mean_anomaly": 277.0251,
        "meta_ephemeris_type": 0,
        "meta_classification_type": "U",
        "meta_norad_cat_id": 54754,
        "meta_element_set_no": 999,
        "meta_rev_at_epoch": 15452,
        "meta_bstar": 4.2264442e-05,
        "meta_mean_motion_dot": 6e-07,
        "meta_mean_motion_ddot": 0,
        "tle_line1": "1 54754U 22173A   25357.21080488  .00000060  00000+0  42264-4 0  9990",
        "tle_line2": "2 54754  77.6109 272.8553 0000387  83.0944 277.0251 14.00168390154528"
      },
      "geometry": {
        "type": "Point",
        "coordinates": [
          121.51491397131309,
          -65.75194786092418
        ]
      }
    },
    {
      "type": "Feature",
      "properties": {
        "norad_id": 57654,
        "name": "GAOFEN-12 04",
        "group": "resource",
        "lat": -50.26963090078705,
        "lon": -77.15656377399527,
        "alt_km": 637.6226533209028,
        "timestamp": "2025-12-23T14:49:08.987528+00:00",
        "meta_object_name": "GAOFEN-12 04",
        "meta_object_id": "2023-123A",
        "meta_epoch": "2025-12-23T06:56:04.027200",
        "meta_mean_motion": 14.79728993,
        "meta_eccentricity": 0.00012105,
        "meta_inclination": 97.9128,
        "meta_ra_of_asc_node": 272.8864,
        "meta_arg_of_pericenter": 78.4133,
        "meta_mean_anomaly": 281.7215,
        "meta_ephemeris_type": 0,
        "meta_classification_type": "U",
        "meta_norad_cat_id": 57654,
        "meta_element_set_no": 999,
        "meta_rev_at_epoch": 12661,
        "meta_bstar": 0.00017894605,
        "meta_mean_motion_dot": 1.293e-05,
        "meta_mean_motion_ddot": 0,
        "tle_line1": "1 57654U 23123A   25357.28893550  .00001293  00000+0  17895-3 0  9997",
        "tle_line2": "2 57654  97.9128 272.8864 0001210  78.4133 281.7215 14.79728993126613"
      },
      "geometry": {
        "type": "Point",
        "coordinates": [
          -77.15656377399527,
          -50.26963090078705
        ]
      }
    },
    {
      "type": "Feature",
      "properties": {
        "norad_id": 59065,
        "name": "PARS 1",
        "group": "resource",
        "lat": -44.993786750600336,
        "lon": 141.24967249652988,
        "alt_km": 457.2995415374571,
        "timestamp": "2025-12-23T14:49:08.987541+00:00",
        "meta_object_name": "PARS 1",
        "meta_object_id": "2024-039Q",
        "meta_epoch": "2025-12-23T07:36:41.355648",
        "meta_mean_motion": 15.41204717,
        "meta_eccentricity": 0.00117604,
        "meta_inclination": 97.4651,
        "meta_ra_of_asc_node": 328.4758,
        "meta_arg_of_pericenter": 39.9576,
        "meta_mean_anomaly": 320.2534,
        "meta_ephemeris_type": 0,
        "meta_classification_type": "U",
        "meta_norad_cat_id": 59065,
        "meta_element_set_no": 999,
        "meta_rev_at_epoch": 10151,
        "meta_bstar": 0.00028992596,
        "meta_mean_motion_dot": 0.00011981,
        "meta_mean_motion_ddot": 0,
        "tle_line1": "1 59065U 24039Q   25357.31714532  .00011981  00000+0  28993-3 0  9994",
        "tle_line2": "2 59065  97.4651 328.4758 0011760  39.9576 320.2534 15.41204717101519"
      },
      "geometry": {
        "type": "Point",
        "coordinates": [
          141.24967249652988,
          -44.993786750600336
        ]
      }
    },
    {
      "type": "Feature",
      "properties": {
        "norad_id": 59371,
        "name": "RESURS-P 4",
        "group": "resource",
        "lat": 16.40508528848858,
        "lon": -58.424557434157265,
        "alt_km": 469.72907633497834,
        "timestamp": "2025-12-23T14:49:08.987553+00:00",
        "meta_object_name": "RESURS-P 4",
        "meta_object_id": "2024-061A",
        "meta_epoch": "2025-12-23T06:54:36.212832",
        "meta_mean_motion": 15.32164835,
        "meta_eccentricity": 9.143e-05,
        "meta_inclination": 97.2564,
        "meta_ra_of_asc_node": 303.4024,
        "meta_arg_of_pericenter": 72.8028,
        "meta_mean_anomaly": 287.3314,
        "meta_ephemeris_type": 0,
        "meta_classification_type": "U",
        "meta_norad_cat_id": 59371,
        "meta_element_set_no": 999,
        "meta_rev_at_epoch": 9682,
        "meta_bstar": 0.00013334927,
        "meta_mean_motion_dot": 4.065e-05,
        "meta_mean_motion_ddot": 0,
        "tle_line1": "1 59371U 24061A   25357.28791913  .00004065  00000+0  13335-3 0  9992",
        "tle_line2": "2 59371  97.2564 303.4024 0000914  72.8028 287.3314 15.32164835 96828"
      },
      "geometry": {
        "type": "Point",
        "coordinates": [
          -58.424557434157265,
          16.40508528848858
        ]
      }
    },
    {
      "type": "Feature",
      "properties": {
        "norad_id": 59625,
        "name": "LEGION 1",
        "group": "resource",
        "lat": -7.873760387025882,
        "lon": 73.21001235159376,
        "alt_km": 520.021488329935,
        "timestamp": "2025-12-23T14:49:08.987565+00:00",
        "meta_object_name": "LEGION 1",
        "meta_object_id": "2024-081A",
        "meta_epoch": "2025-12-23T05:21:10.839168",
        "meta_mean_motion": 15.16577321,
        "meta_eccentricity": 0.00036157,
        "meta_inclination": 97.52,
        "meta_ra_of_asc_node": 71.7722,
        "meta_arg_of_pericenter": 268.2773,
        "meta_mean_anomaly": 91.8046,
        "meta_ephemeris_type": 0,
        "meta_classification_type": "U",
        "meta_norad_cat_id": 59625,
        "meta_element_set_no": 999,
        "meta_rev_at_epoch": 9086,
        "meta_bstar": 0.00029375086,
        "meta_mean_motion_dot": 5.669e-05,
        "meta_mean_motion_ddot": 0,
        "tle_line1": "1 59625U 24081A   25357.22304212  .00005669  00000+0  29375-3 0  9994",
        "tle_line2": "2 59625  97.5200  71.7722 0003615 268.2773  91.8046 15.16577321 90867"
      },
      "geometry": {
        "type": "Point",
        "coordinates": [
          73.21001235159376,
          -7.873760387025882
        ]
      }
    },
    {
      "type": "Feature",
      "properties": {
        "norad_id": 59626,
        "name": "LEGION 2",
        "group": "resource",
        "lat": 7.465539221472369,
        "lon": -106.75699814716403,
        "alt_km": 517.1488721049254,
        "timestamp": "2025-12-23T14:49:08.987577+00:00",
        "meta_object_name": "LEGION 2",
        "meta_object_id": "2024-081B",
        "meta_epoch": "2025-12-23T04:33:36.207360",
        "meta_mean_motion": 15.16589691,
        "meta_eccentricity": 0.00056886,
        "meta_inclination": 97.5202,
        "meta_ra_of_asc_node": 71.8273,
        "meta_arg_of_pericenter": 248.3098,
        "meta_mean_anomaly": 111.7529,
        "meta_ephemeris_type": 0,
        "meta_classification_type": "U",
        "meta_norad_cat_id": 59626,
        "meta_element_set_no": 999,
        "meta_rev_at_epoch": 9086,
        "meta_bstar": 0.00025157412,
        "meta_mean_motion_dot": 4.847e-05,
        "meta_mean_motion_ddot": 0,
        "tle_line1": "1 59626U 24081B   25357.19000240  .00004847  00000+0  25157-3 0  9996",
        "tle_line2": "2 59626  97.5202  71.8273 0005688 248.3098 111.7529 15.16589691 90864"
      },
      "geometry": {
        "type": "Point",
        "coordinates": [
          -106.75699814716403,
          7.465539221472369
        ]
      }
    }
  ]
}